NORAD_CAT_ID,OBJECT_NAME,OBJECT_TYPE,EPOCH,MEAN_MOTION,ECCENTRICITY,INCLINATION,RA_OF_ASC_NODE,ARG_OF_PERICENTER,MEAN_ANOMALY,BSTAR,MEAN_MOTION_DOT,MEAN_MOTION_DDOT,TLE_LINE0,TLE_LINE1,TLE_LINE2,SEMIMAJOR_AXIS,PERIOD,APOGEE,PERIGEE,DECAYED
52576.0,STARLINK-3932,PAYLOAD,2023-11-02 04:58:49,15.08849837,0.0001481,53.2194,12.9913,96.1587,263.9574,0.00055128,8.499e-05,0.0,0 STARLINK-3932,1 52576U 22051AS  23306.20751708  .00008499  00000-0  55128-3 0  9993,2 52576  53.2194  12.9913 0001481  96.1587 263.9574 15.08849837 82050,6917.85,95.437,540.74,538.691,0.0
52576.0,STARLINK-3932,PAYLOAD,2023-11-02 11:20:21,15.08856581,0.0001381,53.2192,11.8064,91.7325,268.3826,0.00055052,8.488e-05,0.0,0 STARLINK-3932,1 52576U 22051AS  23306.47247429  .00008488  00000-0  55052-3 0  9996,2 52576  53.2192  11.8064 0001381  91.7325 268.3826 15.08856581 82023,6917.83,95.437,540.65,538.739,0.0
52576.0,STARLINK-3932,PAYLOAD,2023-11-03 04:49:36,15.08848964,0.0001458,53.2186,8.5341,86.7153,273.4006,0.00059372,9.176e-05,0.0,0 STARLINK-3932,1 52576U 22051AS  23307.20111494  .00009176  00000-0  59372-3 0  9994,2 52576  53.2186   8.5341 0001458  86.7153 273.4006 15.08848964 82208,6917.853,95.437,540.727,538.709,0.0
52576.0,STARLINK-3932,PAYLOAD,2023-11-03 11:11:08,15.08848478,0.0001328,53.2189,7.3463,87.2064,272.908,0.00018719,2.693e-05,0.0,0 STARLINK-3932,1 52576U 22051AS  23307.46607369  .00002693  00000-0  18719-3 0  9990,2 52576  53.2189   7.3463 0001328  87.2064 272.9080 15.08848478 82178,6917.854,95.437,540.638,538.801,0.0
52576.0,STARLINK-3932,PAYLOAD,2023-11-03 20:43:27,15.08841444,0.0001395,53.2185,5.5613,87.9382,272.177,5.7593e-05,6.29e-06,0.0,0 STARLINK-3932,1 52576U 22051AS  23307.86351579  .00000629  00000-0  57593-4 0  9994,2 52576  53.2185   5.5613 0001395  87.9382 272.1770 15.08841444 82304,6917.876,95.437,540.706,538.776,0.0
52576.0,STARLINK-3932,PAYLOAD,2023-11-04 11:01:56,15.08843675,0.0001475,53.2184,2.8885,86.1125,274.0035,9.9383e-05,1.294e-05,0.0,0 STARLINK-3932,1 52576U 22051AS  23308.45967624  .00001294  00000-0  99383-4 0  9996,2 52576  53.2184   2.8885 0001475  86.1125 274.0035 15.08843675 82324,6917.869,95.437,540.755,538.714,0.0
52576.0,STARLINK-3932,PAYLOAD,2023-11-04 20:34:14,15.08843158,0.000142,53.2181,1.1044,95.3015,264.814,0.00012255,1.663e-05,0.0,0 STARLINK-3932,1 52576U 22051AS  23308.85711522  .00001663  00000-0  12255-3 0  9996,2 52576  53.2181   1.1044 0001420  95.3015 264.8140 15.08843158 82386,6917.871,95.437,540.718,538.753,0.0
52576.0,STARLINK-3932,PAYLOAD,2023-11-05 10:52:42,15.08857853,0.0001521,53.2185,358.4272,83.8335,276.2831,0.00041456,6.319e-05,0.0,0 STARLINK-3932,1 52576U 22051AS  23309.45327071  .00006319  00000-0  41456-3 0  9993,2 52576  53.2185 358.4272 0001521  83.8335 276.2831 15.08857853 82549,6917.826,95.436,540.743,538.639,0.0
52576.0,STARLINK-3932,PAYLOAD,2023-11-05 12:28:05,15.08860053,0.0001487,53.2183,358.1298,94.3826,265.7336,0.00041996,6.406e-05,0.0,0 STARLINK-3932,1 52576U 22051AS  23309.51950787  .00006406  00000-0  41996-3 0  9992,2 52576  53.2183 358.1298 0001487  94.3826 265.7336 15.08860053 82487,6917.819,95.436,540.713,538.655,0.0
52576.0,STARLINK-3932,PAYLOAD,2023-11-06 02:46:33,15.08856838,0.0002119,53.2175,355.4546,83.7412,276.3821,0.00034374,5.189e-05,0.0,0 STARLINK-3932,1 52576U 22051AS  23310.11566915  .00005189  00000-0  34374-3 0  9995,2 52576  53.2175 355.4546 0002119  83.7412 276.3821 15.08856838 82641,6917.829,95.436,541.16,538.228,0.0
52576.0,STARLINK-3932,PAYLOAD,2023-11-06 10:43:28,15.0886892,0.0001656,53.218,353.964,70.4263,289.6908,0.00049174,7.553e-05,0.0,0 STARLINK-3932,1 52576U 22051AS  23310.44686185  .00007553  00000-0  49174-3 0  9994,2 52576  53.2180 353.9640 0001656  70.4263 289.6908 15.08868920 82623,6917.792,95.436,540.803,538.511,0.0
52576.0,STARLINK-3932,PAYLOAD,2023-11-06 20:15:50,15.08801448,0.0002155,53.2178,352.1852,74.6416,285.4814,-0.00077486,-0.00012586,0.0,0 STARLINK-3932,1 52576U 22051AS  23310.84433045 -.00012586  00000-0 -77486-3 0  9994,2 52576  53.2178 352.1852 0002155  74.6416 285.4814 15.08801448 82685,6917.998,95.44,541.354,538.372,0.0
52576.0,STARLINK-3932,PAYLOAD,2023-11-07 02:37:23,15.08791618,0.0002117,53.217,350.9965,77.3537,282.7691,-0.00077071,-0.00012517,0.0,0 STARLINK-3932,1 52576U 22051AS  23311.10930111 -.00012517  00000-0 -77071-3 0  9994,2 52576  53.2170 350.9965 0002117  77.3537 282.7691 15.08791618 82792,6918.028,95.441,541.358,538.429,0.0
52576.0,STARLINK-3932,PAYLOAD,2023-11-07 08:58:55,15.08834791,0.0001717,53.2192,349.8032,83.2575,276.8612,0.0004146,6.316e-05,0.0,0 STARLINK-3932,1 52576U 22051AS  23311.37425208  .00006316  00000-0  41460-3 0  9990,2 52576  53.2192 349.8032 0001717  83.2575 276.8612 15.08834791 82833,6917.896,95.438,540.949,538.574,0.0
52576.0,STARLINK-3932,PAYLOAD,2023-11-08 02:28:10,15.08838386,0.0001595,53.2189,346.5313,86.4999,273.6176,0.00059265,9.156e-05,0.0,0 STARLINK-3932,1 52576U 22051AS  23312.10290076  .00009156  00000-0  59265-3 0  9992,2 52576  53.2189 346.5313 0001595  86.4999 273.6176 15.08838386 82940,6917.885,95.438,540.854,538.647,0.0
52576.0,STARLINK-3932,PAYLOAD,2023-11-08 08:49:42,15.08854023,0.0001521,53.2188,345.3426,90.6458,269.4709,0.0009545,0.00014941,0.0,0 STARLINK-3932,1 52576U 22051AS  23312.36785571  .00014941  00000-0  95450-3 0  9993,2 52576  53.2188 345.3426 0001521  90.6458 269.4709 15.08854023 82982,6917.838,95.437,540.755,538.65,0.0
52576.0,STARLINK-3932,PAYLOAD,2023-11-08 19:57:24,15.08848029,0.0001584,53.2189,343.2615,78.626,281.491,0.00056492,8.716e-05,0.0,0 STARLINK-3932,1 52576U 22051AS  23312.83153680  .00008716  00000-0  56492-3 0  9991,2 52576  53.2189 343.2615 0001584  78.6260 281.4910 15.08848029 83052,6917.856,95.437,540.817,538.625,0.0
52576.0,STARLINK-3932,PAYLOAD,2023-11-09 08:40:29,15.08852671,0.0001582,53.2194,340.8877,50.4223,309.6909,0.0003218,4.839e-05,0.0,0 STARLINK-3932,1 52576U 22051AS  23313.36145062  .00004839  00000-0  32180-3 0  9995,2 52576  53.2194 340.8877 0001582  50.4223 309.6909 15.08852671 83066,6917.842,95.437,540.801,538.612,0.0
52576.0,STARLINK-3932,PAYLOAD,2023-11-10 02:09:43,15.08845018,0.0001651,53.2186,337.6202,54.5308,305.5838,-2.2832e-05,-6.51e-06,0.0,0 STARLINK-3932,1 52576U 22051AS  23314.09009080 -.00000651  00000-0 -22832-4 0  9999,2 52576  53.2186 337.6202 0001651  54.5308 305.5838 15.08845018 83242,6917.865,95.437,540.872,538.588,0.0
52576.0,STARLINK-3932,PAYLOAD,2023-11-10 08:31:16,15.08846327,0.0001523,53.2185,336.4241,87.083,273.0336,-8.5231e-06,-4.24e-06,0.0,0 STARLINK-3932,1 52576U 22051AS  23314.35504945 -.00000424  00000-0 -85231-5 0  9999,2 52576  53.2185 336.4241 0001523  87.0830 273.0336 15.08846327 83213,6917.861,95.437,540.78,538.672,0.0
52576.0,STARLINK-3932,PAYLOAD,2023-11-10 18:03:35,15.08839628,0.000139,53.2178,334.6381,95.3615,264.7536,-6.7222e-05,-1.358e-05,0.0,0 STARLINK-3932,1 52576U 22051AS  23314.75249072 -.00001358  00000-0 -67222-4 0  9996,2 52576  53.2178 334.6381 0001390  95.3615 264.7536 15.08839628 83276,6917.882,95.438,540.708,538.785,0.0
52576.0,STARLINK-3932,PAYLOAD,2023-11-11 00:25:08,15.0882156,0.0001486,53.2187,333.4479,93.6548,266.4614,-0.00027849,-4.715e-05,0.0,0 STARLINK-3932,1 52576U 22051AS  23315.01746097 -.00004715  00000-0 -27849-3 0  9995,2 52576  53.2187 333.4479 0001486  93.6548 266.4614 15.08821560 83387,6917.937,95.439,540.83,538.774,0.0
52576.0,STARLINK-3932,PAYLOAD,2023-11-11 06:46:41,15.08829719,0.0001677,53.2177,332.2588,101.1681,258.95,-0.00011493,-2.116e-05,0.0,0 STARLINK-3932,1 52576U 22051AS  23315.28242037 -.00002116  00000-0 -11493-3 0  9990,2 52576  53.2177 332.2588 0001677 101.1681 258.9500 15.08829719 83428,6917.912,95.438,540.937,538.617,0.0
52576.0,STARLINK-3932,PAYLOAD,2023-11-12 01:51:18,15.08841867,0.0001611,53.2173,328.6907,104.9225,255.1946,0.00026983,4.009e-05,0.0,0 STARLINK-3932,1 52576U 22051AS  23316.07729684  .00004009  00000-0  26983-3 0  9997,2 52576  53.2173 328.6907 0001611 104.9225 255.1946 15.08841867 83545,6917.875,95.437,540.854,538.625,0.0
52576.0,STARLINK-3932,PAYLOAD,2023-11-12 08:12:50,15.08858305,0.000166,53.217,327.501,108.0337,252.0836,0.00092858,0.00014529,0.0,0 STARLINK-3932,1 52576U 22051AS  23316.34225594  .00014529  00000-0  92858-3 0  9990,2 52576  53.2170 327.5010 0001660 108.0337 252.0836 15.08858305 83581,6917.824,95.436,540.838,538.541,0.0
52576.0,STARLINK-3932,PAYLOAD,2023-11-12 17:45:09,15.08862676,0.0001301,53.2169,325.7169,93.1724,266.9417,0.00036483,5.527e-05,0.0,0 STARLINK-3932,1 52576U 22051AS  23316.73969126  .00005527  00000-0  36483-3 0  9999,2 52576  53.2169 325.7169 0001301  93.1724 266.9417 15.08862676 83574,6917.811,95.436,540.576,538.776,0.0
52576.0,STARLINK-3932,PAYLOAD,2023-11-13 09:39:01,15.08843513,0.0001805,53.2191,322.7393,95.7861,264.3337,0.00041534,6.329e-05,0.0,0 STARLINK-3932,1 52576U 22051AS  23317.40209584  .00006329  00000-0  41534-3 0  9993,2 52576  53.2191 322.7393 0001805  95.7861 264.3337 15.08843513 83745,6917.87,95.437,540.983,538.486,0.0
52576.0,STARLINK-3932,PAYLOAD,2023-11-14 09:29:47,15.08850393,0.0001636,53.2177,318.2834,88.5003,271.6177,1.8571e-05,8e-08,0.0,0 STARLINK-3932,1 52576U 22051AS  23318.39568747  .00000008  00000-0  18571-4 0  9995,2 52576  53.2177 318.2834 0001636  88.5003 271.6177 15.08850393 83825,6917.849,95.437,540.845,538.582,0.0
52576.0,STARLINK-3932,PAYLOAD,2023-11-15 09:20:34,15.08847522,0.0001605,53.2182,313.8167,100.4516,259.6657,4.9415e-05,4.99e-06,0.0,0 STARLINK-3932,1 52576U 22051AS  23319.38928820  .00000499  00000-0  49415-4 0  9992,2 52576  53.2182 313.8167 0001605 100.4516 259.6657 15.08847522 84044,6917.857,95.437,540.833,538.612,0.0
52576.0,STARLINK-3932,PAYLOAD,2023-11-15 17:17:30,15.08841214,0.0001817,53.2192,312.33,95.658,264.462,-1.9783e-05,-6.03e-06,0.0,0 STARLINK-3932,1 52576U 22051AS  23319.72049362 -.00000603  00000-0 -19783-4 0  9999,2 52576  53.2192 312.3300 0001817  95.6580 264.4620 15.08841214 84090,6917.877,95.437,540.999,538.485,0.0
